CCSDS_OMM_VERS = 2.0
CREATION_DATE  = 
ORIGINATOR     = 

OBJECT_NAME    = STARLINK-36543
OBJECT_ID      = 2026-012Y
CENTER_NAME    = EARTH
REF_FRAME      = TEME
TIME_SYSTEM    = UTC
MEAN_ELEMENT_THEORY = SGP/SGP4

EPOCH          = 2026-02-12T06:00:02.999808
MEAN_MOTION    = 15.49791974
ECCENTRICITY   = .00013258
INCLINATION    = 43.0002
RA_OF_ASC_NODE = 98.6671
ARG_OF_PERICENTER = 274.8146
MEAN_ANOMALY   = 107.8305

EPHEMERIS_TYPE = 0
CLASSIFICATION_TYPE = U
NORAD_CAT_ID   = 67515
ELEMENT_SET_NO = 999
REV_AT_EPOCH   = 492
BSTAR          = -.38239089E-1
MEAN_MOTION_DOT = -.1953597E-1
MEAN_MOTION_DDOT = 0

CCSDS_OMM_VERS = 2.0
CREATION_DATE  = 
ORIGINATOR     = 

OBJECT_NAME    = STARLINK-36537
OBJECT_ID      = 2026-012Z
CENTER_NAME    = EARTH
REF_FRAME      = TEME
TIME_SYSTEM    = UTC
MEAN_ELEMENT_THEORY = SGP/SGP4

EPOCH          = 2026-02-12T06:00:02.999808
MEAN_MOTION    = 15.49886090
ECCENTRICITY   = .00014479
INCLINATION    = 42.9998
RA_OF_ASC_NODE = 98.4981
ARG_OF_PERICENTER = 283.8961
MEAN_ANOMALY   = 166.8537

EPHEMERIS_TYPE = 0
CLASSIFICATION_TYPE = U
NORAD_CAT_ID   = 67516
ELEMENT_SET_NO = 999
REV_AT_EPOCH   = 492
BSTAR          = -.38182145E-1
MEAN_MOTION_DOT = -.1956947E-1
MEAN_MOTION_DDOT = 0

CCSDS_OMM_VERS = 2.0
CREATION_DATE  = 
ORIGINATOR     = 

OBJECT_NAME    = STARLINK-36544
OBJECT_ID      = 2026-012AA
CENTER_NAME    = EARTH
REF_FRAME      = TEME
TIME_SYSTEM    = UTC
MEAN_ELEMENT_THEORY = SGP/SGP4

EPOCH          = 2026-02-12T06:00:02.999808
MEAN_MOTION    = 15.48035702
ECCENTRICITY   = .00012382
INCLINATION    = 43.0005
RA_OF_ASC_NODE = 98.4624
ARG_OF_PERICENTER = 283.2094
MEAN_ANOMALY   = 182.5738

EPHEMERIS_TYPE = 0
CLASSIFICATION_TYPE = U
NORAD_CAT_ID   = 67517
ELEMENT_SET_NO = 999
REV_AT_EPOCH   = 498
BSTAR          = -.39857479E-1
MEAN_MOTION_DOT = -.1917299E-1
MEAN_MOTION_DDOT = 0

CCSDS_OMM_VERS = 2.0
CREATION_DATE  = 
ORIGINATOR     = 

OBJECT_NAME    = STARLINK-36412
OBJECT_ID      = 2026-012AB
CENTER_NAME    = EARTH
REF_FRAME      = TEME
TIME_SYSTEM    = UTC
MEAN_ELEMENT_THEORY = SGP/SGP4

EPOCH          = 2026-02-12T06:00:02.999808
MEAN_MOTION    = 15.50581290
ECCENTRICITY   = .00009934
INCLINATION    = 43.0000
RA_OF_ASC_NODE = 98.4468
ARG_OF_PERICENTER = 267.3608
MEAN_ANOMALY   = 203.8890

EPHEMERIS_TYPE = 0
CLASSIFICATION_TYPE = U
NORAD_CAT_ID   = 67518
ELEMENT_SET_NO = 999
REV_AT_EPOCH   = 492
BSTAR          = -.32779941E-3
MEAN_MOTION_DOT = -.19525E-3
MEAN_MOTION_DDOT = 0

CCSDS_OMM_VERS = 2.0
CREATION_DATE  = 
ORIGINATOR     = 

OBJECT_NAME    = STARLINK-36415
OBJECT_ID      = 2026-012AC
CENTER_NAME    = EARTH
REF_FRAME      = TEME
TIME_SYSTEM    = UTC
MEAN_ELEMENT_THEORY = SGP/SGP4

EPOCH          = 2026-02-12T06:00:02.999808
MEAN_MOTION    = 15.50619857
ECCENTRICITY   = .00017142
INCLINATION    = 42.9999
RA_OF_ASC_NODE = 98.4158
ARG_OF_PERICENTER = 287.6806
MEAN_ANOMALY   = 195.3760

EPHEMERIS_TYPE = 0
CLASSIFICATION_TYPE = U
NORAD_CAT_ID   = 67519
ELEMENT_SET_NO = 999
REV_AT_EPOCH   = 513
BSTAR          = -.15671196E-2
MEAN_MOTION_DOT = -.91347E-3
MEAN_MOTION_DDOT = 0

CCSDS_OMM_VERS = 2.0
CREATION_DATE  = 
ORIGINATOR     = 

OBJECT_NAME    = STARLINK-36547
OBJECT_ID      = 2026-012AD
CENTER_NAME    = EARTH
REF_FRAME      = TEME
TIME_SYSTEM    = UTC
MEAN_ELEMENT_THEORY = SGP/SGP4

EPOCH          = 2026-02-12T06:00:02.999808
MEAN_MOTION    = 15.50598907
ECCENTRICITY   = .00012992
INCLINATION    = 43.0000
RA_OF_ASC_NODE = 98.4695
ARG_OF_PERICENTER = 280.3287
MEAN_ANOMALY   = 181.4173

EPHEMERIS_TYPE = 0
CLASSIFICATION_TYPE = U
NORAD_CAT_ID   = 67520
ELEMENT_SET_NO = 999
REV_AT_EPOCH   = 492
BSTAR          = -.74617421E-3
MEAN_MOTION_DOT = -.43901E-3
MEAN_MOTION_DDOT = 0

CCSDS_OMM_VERS = 2.0
CREATION_DATE  = 
ORIGINATOR     = 

OBJECT_NAME    = STARLINK-36444
OBJECT_ID      = 2026-012AE
CENTER_NAME    = EARTH
REF_FRAME      = TEME
TIME_SYSTEM    = UTC
MEAN_ELEMENT_THEORY = SGP/SGP4

EPOCH          = 2026-02-12T06:00:02.999808
MEAN_MOTION    = 15.50708977
ECCENTRICITY   = .00011339
INCLINATION    = 42.9999
RA_OF_ASC_NODE = 98.5964
ARG_OF_PERICENTER = 311.7165
MEAN_ANOMALY   = 99.0697

EPHEMERIS_TYPE = 0
CLASSIFICATION_TYPE = U
NORAD_CAT_ID   = 67521
ELEMENT_SET_NO = 999
REV_AT_EPOCH   = 492
BSTAR          = -.29188798E-2
MEAN_MOTION_DOT = -.168715E-2
MEAN_MOTION_DDOT = 0

CCSDS_OMM_VERS = 2.0
CREATION_DATE  = 
ORIGINATOR     = 

OBJECT_NAME    = HULIANWANG DIGUI-146
OBJECT_ID      = 2026-013A
CENTER_NAME    = EARTH
REF_FRAME      = TEME
TIME_SYSTEM    = UTC
MEAN_ELEMENT_THEORY = SGP/SGP4

EPOCH          = 2026-02-11T08:20:06.010656
MEAN_MOTION    = 13.78804724
ECCENTRICITY   = .00032318
INCLINATION    = 50.0087
RA_OF_ASC_NODE = 93.2680
ARG_OF_PERICENTER = 354.9738
MEAN_ANOMALY   = 5.1123

EPHEMERIS_TYPE = 0
CLASSIFICATION_TYPE = U
NORAD_CAT_ID   = 67522
ELEMENT_SET_NO = 999
REV_AT_EPOCH   = 321
BSTAR          = .98638908E-4
MEAN_MOTION_DOT = -.41E-6
MEAN_MOTION_DDOT = 0

CCSDS_OMM_VERS = 2.0
CREATION_DATE  = 
ORIGINATOR     = 

OBJECT_NAME    = HULIANWANG DIGUI-147
OBJECT_ID      = 2026-013B
CENTER_NAME    = EARTH
REF_FRAME      = TEME
TIME_SYSTEM    = UTC
MEAN_ELEMENT_THEORY = SGP/SGP4

EPOCH          = 2026-02-12T01:41:54.279168
MEAN_MOTION    = 13.78106281
ECCENTRICITY   = .00014279
INCLINATION    = 50.0049
RA_OF_ASC_NODE = 90.4143
ARG_OF_PERICENTER = 24.4462
MEAN_ANOMALY   = 335.6498

EPHEMERIS_TYPE = 0
CLASSIFICATION_TYPE = U
NORAD_CAT_ID   = 67523
ELEMENT_SET_NO = 999
REV_AT_EPOCH   = 331
BSTAR          = .98544429E-4
MEAN_MOTION_DOT = -.42E-6
MEAN_MOTION_DDOT = 0

CCSDS_OMM_VERS = 2.0
CREATION_DATE  = 
ORIGINATOR     = 

OBJECT_NAME    = HULIANWANG DIGUI-148
OBJECT_ID      = 2026-013C
CENTER_NAME    = EARTH
REF_FRAME      = TEME
TIME_SYSTEM    = UTC
MEAN_ELEMENT_THEORY = SGP/SGP4

EPOCH          = 2026-02-11T15:08:38.559840
MEAN_MOTION    = 13.78557366
ECCENTRICITY   = .00006698
INCLINATION    = 50.0089
RA_OF_ASC_NODE = 92.0945
ARG_OF_PERICENTER = 68.0195
MEAN_ANOMALY   = 292.0769

EPHEMERIS_TYPE = 0
CLASSIFICATION_TYPE = U
NORAD_CAT_ID   = 67524
ELEMENT_SET_NO = 999
REV_AT_EPOCH   = 325
BSTAR          = .11317971E-3
MEAN_MOTION_DOT = -.27E-6
MEAN_MOTION_DDOT = 0

CCSDS_OMM_VERS = 2.0
CREATION_DATE  = 
ORIGINATOR     = 

OBJECT_NAME    = HULIANWANG DIGUI-149
OBJECT_ID      = 2026-013D
CENTER_NAME    = EARTH
REF_FRAME      = TEME
TIME_SYSTEM    = UTC
MEAN_ELEMENT_THEORY = SGP/SGP4

EPOCH          = 2026-02-11T15:03:36.711936
MEAN_MOTION    = 13.79047719
ECCENTRICITY   = .00022116
INCLINATION    = 50.0066
RA_OF_ASC_NODE = 92.0767
ARG_OF_PERICENTER = 45.1613
MEAN_ANOMALY   = 314.9460

EPHEMERIS_TYPE = 0
CLASSIFICATION_TYPE = U
NORAD_CAT_ID   = 67525
ELEMENT_SET_NO = 999
REV_AT_EPOCH   = 325
BSTAR          = .10787952E-3
MEAN_MOTION_DOT = -.31E-6
MEAN_MOTION_DDOT = 0

CCSDS_OMM_VERS = 2.0
CREATION_DATE  = 
ORIGINATOR     = 

OBJECT_NAME    = HULIANWANG DIGUI-150
OBJECT_ID      = 2026-013E
CENTER_NAME    = EARTH
REF_FRAME      = TEME
TIME_SYSTEM    = UTC
MEAN_ELEMENT_THEORY = SGP/SGP4

EPOCH          = 2026-02-11T18:22:32.334528
MEAN_MOTION    = 13.79114508
ECCENTRICITY   = .00029763
INCLINATION    = 50.0132
RA_OF_ASC_NODE = 91.4490
ARG_OF_PERICENTER = 205.9839
MEAN_ANOMALY   = 154.0905

EPHEMERIS_TYPE = 0
CLASSIFICATION_TYPE = U
NORAD_CAT_ID   = 67526
ELEMENT_SET_NO = 999
REV_AT_EPOCH   = 329
BSTAR          = .10353359E-3
MEAN_MOTION_DOT = -.36E-6
MEAN_MOTION_DDOT = 0

