STARLINK-36543          
1 67515U 26012Y   26043.25003472 -.01953597  00000+0 -38239-1 0  9999
2 67515  43.0002  98.6671 0001325 274.8146 107.8305 15.49791974  4920
STARLINK-36537          
1 67516U 26012Z   26043.25003472 -.01956947  00000+0 -38182-1 0  9999
2 67516  42.9998  98.4981 0001447 283.8961 166.8537 15.49886090  4921
STARLINK-36544          
1 67517U 26012AA  26043.25003472 -.01917299  00000+0 -39857-1 0  9997
2 67517  43.0005  98.4624 0001238 283.2094 182.5738 15.48035702  4985
STARLINK-36412          
1 67518U 26012AB  26043.25003472 -.00019525  00000+0 -32780-3 0  9992
2 67518  43.0000  98.4468 0000993 267.3608 203.8890 15.50581290  4929
STARLINK-36415          
1 67519U 26012AC  26043.25003472 -.00091347  00000+0 -15671-2 0  9994
2 67519  42.9999  98.4158 0001714 287.6806 195.3760 15.50619857  5134
STARLINK-36547          
1 67520U 26012AD  26043.25003472 -.00043901  00000+0 -74617-3 0  9995
2 67520  43.0000  98.4695 0001299 280.3287 181.4173 15.50598907  4920
STARLINK-36444          
1 67521U 26012AE  26043.25003472 -.00168715  00000+0 -29189-2 0  9990
2 67521  42.9999  98.5964 0001133 311.7165  99.0697 15.50708977  4922
HULIANWANG DIGUI-146    
1 67522U 26013A   26042.34729179 -.00000041  00000+0  98639-4 0  9994
2 67522  50.0087  93.2680 0003231 354.9738   5.1123 13.78804724  3212
HULIANWANG DIGUI-147    
1 67523U 26013B   26043.07076712 -.00000042  00000+0  98544-4 0  9990
2 67523  50.0049  90.4143 0001427  24.4462 335.6498 13.78106281  3312
HULIANWANG DIGUI-148    
1 67524U 26013C   26042.63100185 -.00000027  00000+0  11318-3 0  9990
2 67524  50.0089  92.0945 0000669  68.0195 292.0769 13.78557366  3253
HULIANWANG DIGUI-149    
1 67525U 26013D   26042.62750824 -.00000031  00000+0  10788-3 0  9996
2 67525  50.0066  92.0767 0002211  45.1613 314.9460 13.79047719  3256
HULIANWANG DIGUI-150    
1 67526U 26013E   26042.76565202 -.00000036  00000+0  10353-3 0  9999
2 67526  50.0132  91.4490 0002976 205.9839 154.0905 13.79114508  3293
